{
    "links": {
        "self": "http://www.neowsapp.com/rest/v1/neo/3729234?api_key=iIulBulltgU6a56xZRHN4H3l9WmuAYTsLGpBGhQ2"
    },
    "id": "3729234",
    "neo_reference_id": "3729234",
    "name": "(2015 TH24)",
    "designation": "2015 TH24",
    "nasa_jpl_url": "http://ssd.jpl.nasa.gov/sbdb.cgi?sstr=3729234",
    "absolute_magnitude_h": 23.4,
    "estimated_diameter": {
        "kilometers": {
            "estimated_diameter_min": 0.0555334912,
            "estimated_diameter_max": 0.1241766613
        },
        "meters": {
            "estimated_diameter_min": 55.5334911581,
            "estimated_diameter_max": 124.1766612574
        },
        "miles": {
            "estimated_diameter_min": 0.0345069009,
            "estimated_diameter_max": 0.0771597762
        },
        "feet": {
            "estimated_diameter_min": 182.1964991311,
            "estimated_diameter_max": 407.4037573197
        }
    },
    "is_potentially_hazardous_asteroid": false,
    "close_approach_data": [
        {
            "close_approach_date": "2012-10-03",
            "close_approach_date_full": "2012-Oct-03 03:54",
            "epoch_date_close_approach": 1349236440000,
            "relative_velocity": {
                "kilometers_per_second": "13.2414612171",
                "kilometers_per_hour": "47669.2603816039",
                "miles_per_hour": "29619.8245965583"
            },
            "miss_distance": {
                "astronomical": "0.2304438107",
                "lunar": "89.6426423623",
                "kilometers": "34473903.235403209",
                "miles": "21421090.1613299242"
            },
            "orbiting_body": "Earth"
        },
        {
            "close_approach_date": "2015-10-04",
            "close_approach_date_full": "2015-Oct-04 09:13",
            "epoch_date_close_approach": 1443949980000,
            "relative_velocity": {
                "kilometers_per_second": "12.1515958757",
                "kilometers_per_hour": "43745.7451526327",
                "miles_per_hour": "27181.9048144233"
            },
            "miss_distance": {
                "astronomical": "0.147254722",
                "lunar": "57.282086858",
                "kilometers": "22028992.75864214",
                "miles": "13688181.370815932"
            },
            "orbiting_body": "Earth"
        },
        {
            "close_approach_date": "2018-10-05",
            "close_approach_date_full": "2018-Oct-05 03:40",
            "epoch_date_close_approach": 1538710800000,
            "relative_velocity": {
                "kilometers_per_second": "11.7100686191",
                "kilometers_per_hour": "42156.2470285962",
                "miles_per_hour": "26194.252493963"
            },
            "miss_distance": {
                "astronomical": "0.1478992584",
                "lunar": "57.5328115176",
                "kilometers": "22125414.031219608",
                "miles": "13748094.7713742704"
            },
            "orbiting_body": "Earth"
        }
    ],
    "orbital_data": {
        "orbit_id": "7",
        "orbit_determination_date": "2017-04-06 08:31:32",
        "first_observation_date": "2015-10-09",
        "last_observation_date": "2015-10-14",
        "data_arc_in_days": 5,
        "observations_used": 23,
        "orbit_uncertainty": "8",
        "minimum_orbit_intersection": ".134164",
        "jupiter_tisserand_invariant": "4.904",
        "epoch_osculation": "2457305.5",
        "eccentricity": ".1399993074313538",
        "semi_major_axis": "1.304281314807054",
        "inclination": "22.70754243457638",
        "ascending_node_longitude": "194.0101896918454",
        "orbital_period": "544.0706967743668",
        "perihelion_distance": "1.121682834038411",
        "perihelion_argument": "154.0635262179626",
        "aphelion_distance": "1.486879795575697",
        "perihelion_time": "2457278.101931429685",
        "mean_anomaly": "18.12871882972194",
        "mean_motion": ".6616787158991154",
        "equinox": "J2000",
        "orbit_class": {
            "orbit_class_type": "AMO",
            "orbit_class_description": "Near-Earth asteroid orbits similar to that of 1221 Amor",
            "orbit_class_range": "1.017 AU < q (perihelion) < 1.3 AU"
        }
    },
    "is_sentry_object": false
}